[{"OBJECT_NAME":"STARLINK-3522","OBJECT_ID":"2022-016M","EPOCH":"2026-03-09T21:59:17.419776","MEAN_MOTION":15.08840993,"ECCENTRICITY":0.0001768,"INCLINATION":53.2203,"RA_OF_ASC_NODE":328.0947,"ARG_OF_PERICENTER":62.0569,"MEAN_ANOMALY":298.0602,"EPHEMERIS_TYPE":0,"CLASSIFICATION_TYPE":"U","NORAD_CAT_ID":51725,"ELEMENT_SET_NO":999,"REV_AT_EPOCH":22345,"BSTAR":-0.0001153914,"MEAN_MOTION_DOT":-2.124e-5,"MEAN_MOTION_DDOT":0},{"OBJECT_NAME":"CZ-6A DEB","OBJECT_ID":"2024-140RN","EPOCH":"2026-03-09T09:36:23.350464","MEAN_MOTION":14.99974811,"ECCENTRICITY":0.0047719,"INCLINATION":88.1445,"RA_OF_ASC_NODE":217.6461,"ARG_OF_PERICENTER":172.1525,"MEAN_ANOMALY":188.0467,"EPHEMERIS_TYPE":0,"CLASSIFICATION_TYPE":"U","NORAD_CAT_ID":61168,"ELEMENT_SET_NO":999,"REV_AT_EPOCH":8322,"BSTAR":0.0063622011,"MEAN_MOTION_DOT":0.00081758,"MEAN_MOTION_DDOT":0}]
